{
    "links": {
        "self": "http://www.neowsapp.com/rest/v1/neo/3776014?api_key=iIulBulltgU6a56xZRHN4H3l9WmuAYTsLGpBGhQ2"
    },
    "id": "3776014",
    "neo_reference_id": "3776014",
    "name": "(2017 ME3)",
    "designation": "2017 ME3",
    "nasa_jpl_url": "http://ssd.jpl.nasa.gov/sbdb.cgi?sstr=3776014",
    "absolute_magnitude_h": 24.5,
    "estimated_diameter": {
        "kilometers": {
            "estimated_diameter_min": 0.0334622374,
            "estimated_diameter_max": 0.0748238376
        },
        "meters": {
            "estimated_diameter_min": 33.4622374455,
            "estimated_diameter_max": 74.8238376074
        },
        "miles": {
            "estimated_diameter_min": 0.0207924639,
            "estimated_diameter_max": 0.0464933628
        },
        "feet": {
            "estimated_diameter_min": 109.7842471007,
            "estimated_diameter_max": 245.4850393757
        }
    },
    "is_potentially_hazardous_asteroid": false,
    "close_approach_data": [
        {
            "close_approach_date": "2017-06-11",
            "close_approach_date_full": "2017-Jun-11 03:21",
            "epoch_date_close_approach": 1497151260000,
            "relative_velocity": {
                "kilometers_per_second": "6.2311116467",
                "kilometers_per_hour": "22432.0019281346",
                "miles_per_hour": "13938.3736425123"
            },
            "miss_distance": {
                "astronomical": "0.0367042254",
                "lunar": "14.2779436806",
                "kilometers": "5490873.939839898",
                "miles": "3411870.8556626724"
            },
            "orbiting_body": "Earth"
        }
    ],
    "orbital_data": {
        "orbit_id": "4",
        "orbit_determination_date": "2017-07-02 06:22:00",
        "first_observation_date": "2017-06-23",
        "last_observation_date": "2017-07-02",
        "data_arc_in_days": 9,
        "observations_used": 40,
        "orbit_uncertainty": "8",
        "minimum_orbit_intersection": ".0349013",
        "jupiter_tisserand_invariant": "3.797",
        "epoch_osculation": "2457929.5",
        "eccentricity": ".4605867698938491",
        "semi_major_axis": "1.910978215465282",
        "inclination": "2.709675882603511",
        "ascending_node_longitude": "122.6348579738076",
        "orbital_period": "964.8993887198479",
        "perihelion_distance": "1.030806931866616",
        "perihelion_argument": "133.5344863406092",
        "aphelion_distance": "2.791149499063948",
        "perihelion_time": "2457911.894113873922",
        "mean_anomaly": "6.568683822877114",
        "mean_motion": ".3730958939435328",
        "equinox": "J2000",
        "orbit_class": {
            "orbit_class_type": "AMO",
            "orbit_class_description": "Near-Earth asteroid orbits similar to that of 1221 Amor",
            "orbit_class_range": "1.017 AU < q (perihelion) < 1.3 AU"
        }
    },
    "is_sentry_object": false
}